NORAD_CAT_ID,OBJECT_NAME,OBJECT_TYPE,EPOCH,MEAN_MOTION,ECCENTRICITY,INCLINATION,RA_OF_ASC_NODE,ARG_OF_PERICENTER,MEAN_ANOMALY,BSTAR,MEAN_MOTION_DOT,MEAN_MOTION_DDOT,TLE_LINE0,TLE_LINE1,TLE_LINE2,SEMIMAJOR_AXIS,PERIOD,APOGEE,PERIGEE,DECAYED
54800.0,STARLINK-5428,PAYLOAD,2024-02-25 11:38:19,15.08849863,0.0001574,53.2172,130.2667,95.6647,264.4525,6.3673e-05,7.26e-06,0.0,0 STARLINK-5428,1 54800U 22175AU  24056.48494847  .00000726  00000-0  63673-4 0  9993,2 54800  53.2172 130.2667 0001574  95.6647 264.4525 15.08849863 67865,6917.85,95.437,540.804,538.626,0.0
54800.0,STARLINK-5428,PAYLOAD,2024-02-26 11:29:06,15.08844496,0.0001742,53.2174,125.8062,104.33,255.7885,9.0615e-05,1.155e-05,0.0,0 STARLINK-5428,1 54800U 22175AU  24057.47855045  .00001155  00000-0  90615-4 0  9997,2 54800  53.2174 125.8062 0001742 104.3300 255.7885 15.08844496 65853,6917.867,95.437,540.937,538.527,0.0
54800.0,STARLINK-5428,PAYLOAD,2024-02-27 03:22:58,15.08836237,0.0001715,53.2182,122.8373,101.1742,258.9443,2.1064e-05,4.7e-07,0.0,0 STARLINK-5428,1 54800U 22175AU  24058.14095942  .00000047  00000-0  21064-4 0  9995,2 54800  53.2182 122.8373 0001715 101.1742 258.9443 15.08836237 65959,6917.892,95.438,540.943,538.57,0.0
54800.0,STARLINK-5428,PAYLOAD,2024-02-27 11:19:54,15.08834997,0.0001556,53.2176,121.3479,98.8115,261.3053,-1.0024e-05,-4.48e-06,0.0,0 STARLINK-5428,1 54800U 22175AU  24058.47216178 -.00000448  00000-0 -10024-4 0  9998,2 54800  53.2176 121.3479 0001556  98.8115 261.3053 15.08834997 68164,6917.896,95.438,540.837,538.684,0.0
54800.0,STARLINK-5428,PAYLOAD,2024-02-28 11:10:41,15.08841432,0.0001424,53.2172,116.8866,96.1935,263.922,4.7605e-05,4.7e-06,0.0,0 STARLINK-5428,1 54800U 22175AU  24059.46575907  .00000470  00000-0  47605-4 0  9994,2 54800  53.2172 116.8866 0001424  96.1935 263.9220 15.08841432 66157,6917.876,95.437,540.726,538.756,0.0
54800.0,STARLINK-5428,PAYLOAD,2024-02-29 11:01:28,15.08842017,0.0001386,53.2169,112.4257,91.5756,268.5394,0.00013864,1.919e-05,0.0,0 STARLINK-5428,1 54800U 22175AU  24060.45935864  .00001919  00000-0  13864-3 0  9995,2 54800  53.2169 112.4257 0001386  91.5756 268.5394 15.08842017 68465,6917.874,95.437,540.698,538.78,0.0
54800.0,STARLINK-5428,PAYLOAD,2024-02-29 20:33:45,15.08860276,0.0001464,53.2169,110.6414,78.9026,281.2131,0.00025632,3.796e-05,0.0,0 STARLINK-5428,1 54800U 22175AU  24060.85678108  .00003796  00000-0  25632-3 0  9995,2 54800  53.2169 110.6414 0001464  78.9026 281.2131 15.08860276 66361,6917.818,95.436,540.696,538.671,0.0
54800.0,STARLINK-5428,PAYLOAD,2024-03-01 12:27:39,15.08831725,0.0001488,53.2174,107.6665,88.9889,271.1273,-5.8134e-05,-1.213e-05,0.0,0 STARLINK-5428,1 54800U 22175AU  24061.51920398 -.00001213  00000-0 -58134-4 0  9998,2 54800  53.2174 107.6665 0001488  88.9889 271.1273 15.08831725 68628,6917.906,95.438,540.8,538.741,0.0
54800.0,STARLINK-5428,PAYLOAD,2024-03-02 09:07:39,15.08844239,0.000141,53.2171,103.8006,83.847,276.2683,8.3568e-06,-1.55e-06,0.0,0 STARLINK-5428,1 54800U 22175AU  24062.38031489 -.00000155  00000-0  83568-5 0  9991,2 54800  53.2171 103.8006 0001410  83.8470 276.2683 15.08844239 66596,6917.867,95.437,540.708,538.757,0.0
54800.0,STARLINK-5428,PAYLOAD,2024-03-03 08:58:25,15.08869927,0.0001292,53.2179,99.3402,82.4276,277.6863,-0.00055394,-9.1e-05,0.0,0 STARLINK-5428,1 54800U 22175AU  24063.37390176 -.00009100  00000-0 -55394-3 0  9996,2 54800  53.2179  99.3402 0001292  82.4276 277.6863 15.08869927 66743,6917.789,95.436,540.548,538.76,0.0
54800.0,STARLINK-5428,PAYLOAD,2024-03-04 05:38:27,15.08837467,0.0001519,53.2165,95.479,95.1146,265.0019,0.0002081,3.025e-05,0.0,0 STARLINK-5428,1 54800U 22175AU  24064.23504297  .00003025  00000-0  20810-3 0  9996,2 54800  53.2165  95.4790 0001519  95.1146 265.0019 15.08837467 66876,6917.888,95.438,540.804,538.702,0.0
54800.0,STARLINK-5428,PAYLOAD,2024-03-04 08:49:13,15.08843257,0.0001547,53.2166,94.8829,96.956,263.1608,0.00028422,4.239e-05,0.0,0 STARLINK-5428,1 54800U 22175AU  24064.36752044  .00004239  00000-0  28422-3 0  9990,2 54800  53.2166  94.8829 0001547  96.9560 263.1608 15.08843257 69053,6917.87,95.437,540.806,538.665,0.0
54800.0,STARLINK-5428,PAYLOAD,2024-03-04 18:21:32,15.0883809,0.0001321,53.2154,93.0969,92.7694,267.3449,0.00016442,2.33e-05,0.0,0 STARLINK-5428,1 54800U 22175AU  24064.76496335  .00002330  00000-0  16442-3 0  9991,2 54800  53.2154  93.0969 0001321  92.7694 267.3449 15.08838090 69113,6917.886,95.438,540.665,538.837,0.0
54800.0,STARLINK-5428,PAYLOAD,2024-03-05 02:18:29,15.08826118,0.0002022,53.2167,91.6096,95.9728,264.1494,-2.2239e-05,-6.42e-06,0.0,0 STARLINK-5428,1 54800U 22175AU  24065.09617238 -.00000642  00000-0 -22239-4 0  9993,2 54800  53.2167  91.6096 0002022  95.9728 264.1494 15.08826118 67003,6917.923,95.438,541.187,538.389,0.0
54800.0,STARLINK-5428,PAYLOAD,2024-03-05 11:50:48,15.08824826,0.0001628,53.2165,89.825,91.3982,268.7197,-2.4707e-05,-6.81e-06,0.0,0 STARLINK-5428,1 54800U 22175AU  24065.49361614 -.00000681  00000-0 -24707-4 0  9996,2 54800  53.2165  89.8250 0001628  91.3982 268.7197 15.08824826 69225,6917.927,95.439,540.918,538.666,0.0
54800.0,STARLINK-5428,PAYLOAD,2024-03-06 10:06:11,15.08852713,0.0001556,53.2164,85.6621,80.4845,279.6323,0.000806,0.00012567,0.0,0 STARLINK-5428,1 54800U 22175AU  24066.42097148  .00012567  00000-0  80600-3 0  9995,2 54800  53.2164  85.6621 0001556  80.4845 279.6323 15.08852713 67201,6917.842,95.437,540.783,538.63,0.0
54800.0,STARLINK-5428,PAYLOAD,2024-03-06 21:13:53,15.08850765,0.0001562,53.2158,83.5804,81.5801,278.5368,0.00034415,5.195e-05,0.0,0 STARLINK-5428,1 54800U 22175AU  24066.88465037  .00005195  00000-0  34415-3 0  9993,2 54800  53.2158  83.5804 0001562  81.5801 278.5368 15.08850765 67274,6917.847,95.437,540.793,538.632,0.0
54800.0,STARLINK-5428,PAYLOAD,2024-03-07 09:56:58,15.08851703,0.0001564,53.2157,81.201,79.2714,280.8454,0.00031092,4.665e-05,0.0,0 STARLINK-5428,1 54800U 22175AU  24067.41456870  .00004665  00000-0  31092-3 0  9997,2 54800  53.2157  81.2010 0001564  79.2714 280.8454 15.08851703 69510,6917.845,95.437,540.792,538.628,0.0
54800.0,STARLINK-5428,PAYLOAD,2024-03-08 05:01:36,15.08842403,0.0001611,53.2162,77.63,94.5858,265.5318,0.00014784,2.066e-05,0.0,0 STARLINK-5428,1 54800U 22175AU  24068.20944942  .00002066  00000-0  14784-3 0  9999,2 54800  53.2162  77.6300 0001611  94.5858 265.5318 15.08842403 67478,6917.873,95.437,540.853,538.624,0.0
54800.0,STARLINK-5428,PAYLOAD,2024-03-08 08:12:22,15.08846081,0.0001673,53.2167,77.0363,96.2537,263.8645,0.00013321,1.833e-05,0.0,0 STARLINK-5428,1 54800U 22175AU  24068.34192872  .00001833  00000-0  13321-3 0  9998,2 54800  53.2167  77.0363 0001673  96.2537 263.8645 15.08846081 69659,6917.862,95.437,540.884,538.569,0.0
54800.0,STARLINK-5428,PAYLOAD,2024-03-08 17:44:41,15.08840417,0.0001648,53.2167,75.2512,93.683,266.435,2.7587e-05,1.51e-06,0.0,0 STARLINK-5428,1 54800U 22175AU  24068.73937093  .00000151  00000-0  27587-4 0  9995,2 54800  53.2167  75.2512 0001648  93.6830 266.4350 15.08840417 69710,6917.879,95.438,540.884,538.604,0.0
54800.0,STARLINK-5428,PAYLOAD,2024-03-09 04:52:23,15.08839041,0.0001652,53.217,73.1694,93.734,266.3841,9.5423e-05,1.231e-05,0.0,0 STARLINK-5428,1 54800U 22175AU  24069.20305385  .00001231  00000-0  95423-4 0  9995,2 54800  53.2170  73.1694 0001652  93.7340 266.3841 15.08839041 67627,6917.883,95.438,540.891,538.605,0.0
54800.0,STARLINK-5428,PAYLOAD,2024-03-09 09:38:32,15.08845036,0.0001717,53.2174,72.2768,94.1658,265.9531,1.9477e-05,2.2e-07,0.0,0 STARLINK-5428,1 54800U 22175AU  24069.40177071  .00000022  00000-0  19477-4 0  9998,2 54800  53.2174  72.2768 0001717  94.1658 265.9531 15.08845036 69817,6917.865,95.437,540.918,538.542,0.0
54800.0,STARLINK-5428,PAYLOAD,2024-03-09 17:35:28,15.088402,0.0001664,53.2175,70.7897,101.0998,259.0182,9.2735e-05,1.188e-05,0.0,0 STARLINK-5428,1 54800U 22175AU  24069.73297288  .00001188  00000-0  92735-4 0  9999,2 54800  53.2175  70.7897 0001664 101.0998 259.0182 15.08840200 69869,6917.88,95.438,540.896,538.594,0.0
54800.0,STARLINK-5428,PAYLOAD,2024-03-10 06:18:33,15.08847578,0.0001529,53.2166,68.4122,96.9242,263.1924,0.00020036,2.903e-05,0.0,0 STARLINK-5428,1 54800U 22175AU  24070.26288887  .00002903  00000-0  20036-3 0  9994,2 54800  53.2166  68.4122 0001529  96.9242 263.1924 15.08847578 67782,6917.857,95.437,540.78,538.664,0.0
54800.0,STARLINK-5428,PAYLOAD,2024-03-10 09:29:19,15.08851196,0.0001529,53.2166,67.8174,97.341,262.7756,0.00019103,2.754e-05,0.0,0 STARLINK-5428,1 54800U 22175AU  24070.39536655  .00002754  00000-0  19103-3 0  9994,2 54800  53.2166  67.8174 0001529  97.3410 262.7756 15.08851196 69965,6917.846,95.437,540.769,538.653,0.0
54800.0,STARLINK-5428,PAYLOAD,2024-03-11 06:09:20,15.08840505,0.0001568,53.2174,63.9474,89.8408,270.2764,5.1092e-05,5.25e-06,0.0,0 STARLINK-5428,1 54800U 22175AU  24071.25649127  .00000525  00000-0  51092-4 0  9997,2 54800  53.2174  63.9474 0001568  89.8408 270.2764 15.08840505 67930,6917.879,95.438,540.829,538.659,0.0
54800.0,STARLINK-5428,PAYLOAD,2024-03-12 04:24:41,15.08926835,0.000112,53.218,59.7844,78.7542,281.3576,-0.0014265,-0.00022972,0.0,0 STARLINK-5428,1 54800U 22175AU  24072.18381684 -.00022972  00000-0 -14265-2 0  9992,2 54800  53.2180  59.7844 0001120  78.7542 281.3576 15.08926835 68072,6917.615,95.432,540.255,538.705,0.0
54800.0,STARLINK-5428,PAYLOAD,2024-03-12 09:10:54,15.08838261,0.0001493,53.2182,58.896,97.9352,262.181,-1.5355e-05,-5.32e-06,0.0,0 STARLINK-5428,1 54800U 22175AU  24072.38257691 -.00000532  00000-0 -15355-4 0  9995,2 54800  53.2182  58.8960 0001493  97.9352 262.1810 15.08838261 68105,6917.886,95.438,540.784,538.718,0.0
54800.0,STARLINK-5428,PAYLOAD,2024-03-12 21:53:59,15.08836971,0.0001785,53.2184,56.519,94.4866,265.633,-1.387e-05,-5.09e-06,0.0,0 STARLINK-5428,1 54800U 22175AU  24072.91249905 -.00000509  00000-0 -13870-4 0  9997,2 54800  53.2184  56.5190 0001785  94.4866 265.6330 15.08836971 70343,6917.89,95.438,540.989,538.52,0.0
